[{"OBJECT_NAME":"NIGERIASAT-X","OBJECT_ID":"2011-044C","EPOCH":"2026-03-09T22:53:29.882112","MEAN_MOTION":14.60784169,"ECCENTRICITY":0.00109862,"INCLINATION":97.8486,"RA_OF_ASC_NODE":58.2104,"ARG_OF_PERICENTER":290.128,"MEAN_ANOMALY":69.8739,"EPHEMERIS_TYPE":0,"CLASSIFICATION_TYPE":"U","NORAD_CAT_ID":37790,"ELEMENT_SET_NO":999,"REV_AT_EPOCH":77568,"BSTAR":0.00013273197,"MEAN_MOTION_DOT":6.05e-6,"MEAN_MOTION_DDOT":0},{"OBJECT_NAME":"CZ-6A DEB","OBJECT_ID":"2022-151TN","EPOCH":"2026-03-09T16:24:00.903456","MEAN_MOTION":14.62403786,"ECCENTRICITY":0.00032612,"INCLINATION":98.7555,"RA_OF_ASC_NODE":116.9074,"ARG_OF_PERICENTER":343.5008,"MEAN_ANOMALY":16.6085,"EPHEMERIS_TYPE":0,"CLASSIFICATION_TYPE":"U","NORAD_CAT_ID":54973,"ELEMENT_SET_NO":999,"REV_AT_EPOCH":17356,"BSTAR":0.0035826005,"MEAN_MOTION_DOT":0.00018118,"MEAN_MOTION_DDOT":0}]
